NORAD_CAT_ID,OBJECT_NAME,OBJECT_TYPE,EPOCH,MEAN_MOTION,ECCENTRICITY,INCLINATION,RA_OF_ASC_NODE,ARG_OF_PERICENTER,MEAN_ANOMALY,BSTAR,MEAN_MOTION_DOT,MEAN_MOTION_DDOT,TLE_LINE0,TLE_LINE1,TLE_LINE2,SEMIMAJOR_AXIS,PERIOD,APOGEE,PERIGEE,DECAYED
52603.0,STARLINK-4016,PAYLOAD,2022-06-06 22:00:00,15.68140456,0.0001188,53.2175,325.4738,100.3522,143.4751,-0.0068112,-0.00710782,0.0,0 STARLINK-4016,1 52603U 22052F   22157.91667824 -.00710782  00000-0 -68112-2 0  9994,2 52603  53.2175 325.4738 0001188 100.3522 143.4751 15.68140456  1303,6742.359,91.829,365.025,363.423,0.0
52603.0,STARLINK-4016,PAYLOAD,2022-06-07 14:00:01,15.67125836,0.0001058,53.2178,322.2026,70.2332,338.0622,-0.0071983,-0.00719725,0.0,0 STARLINK-4016,1 52603U 22052F   22158.58334491 -.00719725  00000-0 -71983-2 0  9995,2 52603  53.2178 322.2026 0001058  70.2332 338.0622 15.67125836  1304,6745.269,91.888,367.847,366.42,0.0
52603.0,STARLINK-4016,PAYLOAD,2022-06-07 20:00:01,15.66742334,0.0001056,53.2177,320.9790000000001,75.8175,303.5867,-0.0072956,-0.0071826,0.0,0 STARLINK-4016,1 52603U 22052F   22158.83335648 -.00718260  00000-0 -72956-2 0  9992,2 52603  53.2177 320.9790 0001056  75.8175 303.5867 15.66742334  4162,6746.369000000002,91.91,368.947,367.522,0.0
52603.0,STARLINK-4016,PAYLOAD,2022-06-07 22:00:00,15.66610041,0.0001181,53.2173,320.5708,69.758,59.8539,-0.0072383,-0.00709576,0.0,0 STARLINK-4016,1 52603U 22052F   22158.91667824 -.00709576  00000-0 -72383-2 0  9999,2 52603  53.2173 320.5708 0001181  69.7580  59.8539 15.66610041  1303,6746.749,91.918,369.411,367.817,0.0
52603.0,STARLINK-4016,PAYLOAD,2022-06-08 14:00:01,15.65594494,0.0001153,53.2176,317.3071,76.6084,213.7951,-0.0076262,-0.00716831,0.0,0 STARLINK-4016,1 52603U 22052F   22159.58334491 -.00716831  00000-0 -76262-2 0  9996,2 52603  53.2176 317.3071 0001153  76.6084 213.7951 15.65594494  1309,6749.667,91.978,372.31,370.753,0.0
52603.0,STARLINK-4016,PAYLOAD,2022-06-08 20:00:01,15.65211631,0.0001173,53.2175,316.0861,102.6892,157.3786,-0.0077319,-0.0071575,0.0,0 STARLINK-4016,1 52603U 22052F   22159.83334491 -.00715750  00000-0 -77319-2 0  9997,2 52603  53.2175 316.0861 0001173 102.6892 157.3786 15.65211631  4312,6750.767,92.0,373.424,371.84,0.0
52603.0,STARLINK-4016,PAYLOAD,2022-06-08 22:00:01,15.65083003,9.84e-05,53.2172,315.6790000000001,99.0124,270.9331,-0.0077461,-0.00713526,0.0,0 STARLINK-4016,1 52603U 22052F   22159.91668981 -.00713526  00000-0 -77461-2 0  9997,2 52603  53.2172 315.6790 0000984  99.0124 270.9331 15.65083003  1305,6751.137,92.008,373.666,372.338,0.0
52603.0,STARLINK-4016,PAYLOAD,2022-06-09 14:00:01,15.64063149,0.0001267,53.2176,312.4228,70.8742,96.1224,-0.0080759,-0.00714188,0.0,0 STARLINK-4016,1 52603U 22052F   22160.58334491 -.00714188  00000-0 -80759-2 0  9997,2 52603  53.2176 312.4228 0001267  70.8742  96.1224 15.64063149  1305,6754.071,92.068,376.792,375.081,0.0
52603.0,STARLINK-4016,PAYLOAD,2022-06-09 20:00:01,15.6367848,0.0001155,53.2176,311.2046,83.0564,52.2267,-0.008156,-0.00710621,0.0,0 STARLINK-4016,1 52603U 22052F   22160.83334491 -.00710621  00000-0 -81560-2 0  9994,2 52603  53.2176 311.2046 0001155  83.0564  52.2267 15.63678480  4474,6755.179,92.091,377.824,376.264,0.0
52603.0,STARLINK-4016,PAYLOAD,2022-06-09 22:00:00,15.63552798,0.0001164,53.2173,310.798,90.2449,154.3896,-0.0082238,-0.00712777,0.0,0 STARLINK-4016,1 52603U 22052F   22160.91667824 -.00712777  00000-0 -82238-2 0  9999,2 52603  53.2173 310.7980 0001164  90.2449 154.3896 15.63552798  1308,6755.541,92.098,378.192,376.62,0.0
52603.0,STARLINK-4016,PAYLOAD,2022-06-10 14:00:01,15.62534947,0.0001133,53.2176,307.5494,61.5074,336.5659,-0.0086132999999999,-0.00716778,0.0,0 STARLINK-4016,1 52603U 22052F   22161.58334491 -.00716778  00000-0 -86133-2 0  9997,2 52603  53.2176 307.5494 0001133  61.5074 336.5659 15.62534947  1302,6758.475,92.158,381.105,379.574,0.0
52603.0,STARLINK-4016,PAYLOAD,2022-06-10 20:00:01,15.6215044,0.0001047,53.2174,306.3339,83.3281,281.6528,-0.0086964,-0.00713162,0.0,0 STARLINK-4016,1 52603U 22052F   22161.83334491 -.00713162  00000-0 -86964-2 0  9991,2 52603  53.2174 306.3339 0001047  83.3281 281.6528 15.62150440  4637,6759.584,92.181,382.156,380.741,0.0
52603.0,STARLINK-4016,PAYLOAD,2022-06-10 22:00:00,15.62024338,0.0001118,53.2171,305.9281,73.815,40.0582,-0.0087631,-0.00714947,0.0,0 STARLINK-4016,1 52603U 22052F   22161.91667824 -.00714947  00000-0 -87631-2 0  9993,2 52603  53.2171 305.9281 0001118  73.8150  40.0582 15.62024338  1307,6759.946999999999,92.188,382.568,381.057,0.0
52603.0,STARLINK-4016,PAYLOAD,2022-06-11 20:00:01,15.60617782,0.0001229,53.2174,301.4744,83.6898,145.4758,-0.0091566,-0.00707911,0.0,0 STARLINK-4016,1 52603U 22052F   22162.83334491 -.00707911  00000-0 -91566-2 0  9991,2 52603  53.2174 301.4744 0001229  83.6898 145.4758 15.60617782  4785,6764.0080000000025,92.271,386.705,385.042,0.0
52603.0,STARLINK-4016,PAYLOAD,2022-06-11 22:00:00,15.60495103,0.0001038,53.2173,301.0696,85.3165,252.2803,-0.0093016,-0.00715041,0.0,0 STARLINK-4016,1 52603U 22052F   22162.91667824 -.00715041  00000-0 -93016-2 0  9994,2 52603  53.2173 301.0696 0001038  85.3165 252.2803 15.60495103  1304,6764.363,92.278,386.93,385.526,0.0
52603.0,STARLINK-4016,PAYLOAD,2022-06-12 12:00:00,15.59603291,0.0001240999999999,53.2177,298.2396,51.8842,323.6721,-0.0096597,-0.00717334,0.0,0 STARLINK-4016,1 52603U 22052F   22163.50001157 -.00717334  00000-0 -96597-2 0  9995,2 52603  53.2177 298.2396 0001241  51.8842 323.6721 15.59603291  4894,6766.941,92.331,389.646,387.967,0.0
52603.0,STARLINK-4016,PAYLOAD,2022-06-12 14:00:01,15.59473168,0.0001436,53.2175,297.8364,48.8671,74.8166,-0.0096454,-0.00713124,0.0,0 STARLINK-4016,1 52603U 22052F   22163.58334491 -.00713124  00000-0 -96454-2 0  9998,2 52603  53.2175 297.8364 0001436  48.8671  74.8166 15.59473168  1303,6767.318,92.339,390.155,388.211,0.0
52603.0,STARLINK-4016,PAYLOAD,2022-06-12 22:00:00,15.58965658,0.0001247,53.2171,296.2221,73.4918,122.3144,-0.0098915,-0.00716881,0.0,0 STARLINK-4016,1 52603U 22052F   22163.91667824 -.00716881  00000-0 -98915-2 0  9991,2 52603  53.2171 296.2221 0001247  73.4918 122.3144 15.58965658  1306,6768.786,92.369,391.495,389.807,0.0
52603.0,STARLINK-4016,PAYLOAD,2022-06-13 12:00:00,15.58072372,0.0001385999999999,53.2174,293.3984,54.2365,176.3118,-0.010195,-0.00714439,0.0,0 STARLINK-4016,1 52603U 22052F   22164.50001157 -.00714439  00000-0 -10195-1 0  9998,2 52603  53.2174 293.3984 0001386  54.2365 176.3118 15.58072372  5047,6771.373000000001,92.422,394.177,392.3,0.0
52603.0,STARLINK-4016,PAYLOAD,2022-06-13 14:00:01,15.57944256,0.0001324,53.2174,292.9965,50.6995,287.5158,-0.01024,-0.00714133,0.0,0 STARLINK-4016,1 52603U 22052F   22164.58334491 -.00714133  00000-0 -10240-1 0  9998,2 52603  53.2174 292.9965 0001324  50.6995 287.5158 15.57944256  1304,6771.745,92.429,394.506,392.713,0.0
52603.0,STARLINK-4016,PAYLOAD,2022-06-13 22:00:00,15.57435052,0.0001085999999999,53.2171,291.3859,66.9503,341.5497,-0.010446,-0.00714532,0.0,0 STARLINK-4016,1 52603U 22052F   22164.91667824 -.00714532  00000-0 -10446-1 0  9995,2 52603  53.2171 291.3859 0001086  66.9503 341.5497 15.57435052  1302,6773.22,92.46,395.821,394.35,0.0
52603.0,STARLINK-4016,PAYLOAD,2022-06-14 12:00:00,15.5654374,0.0001462,53.2172,288.5688,49.0772,30.9474,-0.010835,-0.00716611,0.0,0 STARLINK-4016,1 52603U 22052F   22165.50001157 -.00716611  00000-0 -10835-1 0  9994,2 52603  53.2172 288.5688 0001462  49.0772  30.9474 15.56543740  5209,6775.806,92.513,398.661,396.68,0.0
52603.0,STARLINK-4016,PAYLOAD,2022-06-14 14:00:01,15.5641237,0.0001555,53.2173,288.1677,50.2267,137.0066,-0.010795,-0.00710989,0.0,0 STARLINK-4016,1 52603U 22052F   22165.58334491 -.00710989  00000-0 -10795-1 0  9999,2 52603  53.2173 288.1677 0001555  50.2267 137.0066 15.56412370  1307,6776.187,92.52,399.106,396.99800000000016,0.0
52603.0,STARLINK-4016,PAYLOAD,2022-06-14 22:00:00,15.55906356,0.0001440999999999,53.2172,286.5604,51.7293,203.9495,-0.011108,-0.00717311,0.0,0 STARLINK-4016,1 52603U 22052F   22165.91667824 -.00717311  00000-0 -11108-1 0  9990,2 52603  53.2172 286.5604 0001441  51.7293 203.9495 15.55906356  1307,6777.656,92.551,400.49800000000016,398.545,0.0
52603.0,STARLINK-4016,PAYLOAD,2022-06-15 12:00:02,15.55011444,0.0001344,53.2176,283.7503,53.2564,230.7954,-0.011399,-0.00712461,0.0,0 STARLINK-4016,1 52603U 22052F   22166.50002315 -.00712461  00000-0 -11399-1 0  9997,2 52603  53.2176 283.7503 0001344  53.2564 230.7954 15.55011444  5350,6780.255999999999,92.604,403.033,401.21,0.0
52603.0,STARLINK-4016,PAYLOAD,2022-06-15 14:00:01,15.54885389,0.0001364,53.2176,283.3501,47.5865,343.1475,-0.011499,-0.00715128,0.0,0 STARLINK-4016,1 52603U 22052F   22166.58334491 -.00715128  00000-0 -11499-1 0  9992,2 52603  53.2176 283.3501 0001364  47.5865 343.1475 15.54885389  1300,6780.623000000001,92.611,403.413,401.56300000000016,0.0
52603.0,STARLINK-4016,PAYLOAD,2022-06-15 22:00:00,15.54374659,0.0001279,53.2172,281.7462,55.4307,41.9124,-0.011688,-0.00713448,0.0,0 STARLINK-4016,1 52603U 22052F   22166.91667824 -.00713448  00000-0 -11688-1 0  9991,2 52603  53.2172 281.7462 0001279  55.4307  41.9124 15.54374659  1305,6782.108,92.642,404.84,403.106,0.0
52603.0,STARLINK-4016,PAYLOAD,2022-06-16 02:00:01,15.54120411,0.0001304,53.2176,280.9439,49.3106,261.1073,-0.011828,-0.00715123,0.0,0 STARLINK-4016,1 52603U 22052F   22167.08334491 -.00715123  00000-0 -11828-1 0  9999,2 52603  53.2176 280.9439 0001304  49.3106 261.1073 15.54120411  1306,6782.848000000001,92.657,405.597,403.828,0.0
52603.0,STARLINK-4016,PAYLOAD,2022-06-19 14:00:01,15.49911567,0.0001713,53.2176,264.1826,35.2464,35.8659,-0.011837,-0.00622053,0.0,0 STARLINK-4016,1 52603U 22052F   22170.58334491 -.00622053  00000-0 -11837-1 0  9997,2 52603  53.2176 264.1826 0001713  35.2464  35.8659 15.49911567  1305,6795.121999999999,92.909,418.151,415.823,0.0
